NORAD_CAT_ID,OBJECT_NAME,OBJECT_TYPE,EPOCH,MEAN_MOTION,ECCENTRICITY,INCLINATION,RA_OF_ASC_NODE,ARG_OF_PERICENTER,MEAN_ANOMALY,BSTAR,MEAN_MOTION_DOT,MEAN_MOTION_DDOT,TLE_LINE0,TLE_LINE1,TLE_LINE2,SEMIMAJOR_AXIS,PERIOD,APOGEE,PERIGEE,DECAYED
51780.0,STARLINK-3617,PAYLOAD,2024-08-01 22:36:12,15.08844948,0.0001377,53.2178,84.1496,95.6508,264.4642,3.6709e-05,2.96e-06,0.0,0 STARLINK-3617,1 51780U 22017N   24214.94181285  .00000296  00000-0  36709-4 0  9990,2 51780  53.2178  84.1496 0001377  95.6508 264.4642 15.08844948134144,6917.865,95.437,540.683,538.778,0.0
51780.0,STARLINK-3617,PAYLOAD,2024-08-02 08:08:30,15.08858711,0.0001375,53.2183,82.3647,90.2822,269.8328,0.00022687,3.326e-05,0.0,0 STARLINK-3617,1 51780U 22017N   24215.33923791  .00003326  00000-0  22687-3 0  9996,2 51780  53.2183  82.3647 0001375  90.2822 269.8328 15.08858711135892,6917.823,95.436,540.639,538.737,0.0
51780.0,STARLINK-3617,PAYLOAD,2024-08-02 20:51:38,15.08822735,0.000151,53.2176,79.9851,92.2151,267.9014,-2.2222e-05,-6.41e-06,0.0,0 STARLINK-3617,1 51780U 22017N   24215.86919065 -.00000641  00000-0 -22222-4 0  9998,2 51780  53.2176  79.9851 0001510  92.2151 267.9014 15.08822735135978,6917.933,95.439,540.843,538.754,0.0
51780.0,STARLINK-3617,PAYLOAD,2024-08-02 22:27:01,15.08820194,0.0001542,53.2172,79.6857,86.0212,274.0956,2.6967e-05,1.41e-06,0.0,0 STARLINK-3617,1 51780U 22017N   24215.93543177  .00000141  00000-0  26967-4 0  9996,2 51780  53.2172  79.6857 0001542  86.0212 274.0956 15.08820194134296,6917.941,95.439,540.873,538.739,0.0
51780.0,STARLINK-3617,PAYLOAD,2024-08-03 07:59:18,15.08842193,0.0001537,53.2174,77.9012,73.8416,286.2745,0.00010098,1.32e-05,0.0,0 STARLINK-3617,1 51780U 22017N   24216.33285871  .00001320  00000-0  10098-3 0  9992,2 51780  53.2174  77.9012 0001537  73.8416 286.2745 15.08842193136045,6917.874,95.437,540.802,538.675,0.0
51780.0,STARLINK-3617,PAYLOAD,2024-08-03 22:17:47,15.08846649,0.0001314,53.2162,75.2254,84.093,276.0212,0.00011585,1.557e-05,0.0,0 STARLINK-3617,1 51780U 22017N   24216.92901651  .00001557  00000-0  11585-3 0  9992,2 51780  53.2162  75.2254 0001314  84.0930 276.0212 15.08846649134447,6917.86,95.437,540.634,538.816,0.0
51780.0,STARLINK-3617,PAYLOAD,2024-08-04 07:50:05,15.08855747,0.000134,53.2159,73.4412,85.4927,274.6218,0.00025784,3.82e-05,0.0,0 STARLINK-3617,1 51780U 22017N   24217.32645149  .00003820  00000-0  25784-3 0  9995,2 51780  53.2159  73.4412 0001340  85.4927 274.6218 15.08855747136192,6917.832,95.437,540.624,538.77,0.0
51780.0,STARLINK-3617,PAYLOAD,2024-08-04 14:11:39,15.08829643,0.0001361,53.2168,72.2506,93.8304,266.2843,0.00013678,1.889e-05,0.0,0 STARLINK-3617,1 51780U 22017N   24217.59142516  .00001889  00000-0  13678-3 0  9996,2 51780  53.2168  72.2506 0001361  93.8304 266.2843 15.08829643134542,6917.912,95.438,540.719,538.836,0.0
51780.0,STARLINK-3617,PAYLOAD,2024-08-04 20:33:10,15.08857632,0.0001287,53.214,71.0629,95.8888,264.2251,0.00071116,0.00011054,0.0,0 STARLINK-3617,1 51780U 22017N   24217.85637627  .00011054  00000-0  71116-3 0  9993,2 51780  53.2140  71.0629 0001287  95.8888 264.2251 15.08857632136273,6917.826,95.436,540.582,538.801,0.0
51780.0,STARLINK-3617,PAYLOAD,2024-08-05 07:40:52,15.08859107,0.0001204,53.2135,68.9781,100.5816,259.5312,0.00068818,0.00010687,0.0,0 STARLINK-3617,1 51780U 22017N   24218.32005223  .00010687  00000-0  68818-3 0  9993,2 51780  53.2135  68.9781 0001204 100.5816 259.5312 15.08859107136347,6917.822,95.436,540.52,538.854,0.0
51780.0,STARLINK-3617,PAYLOAD,2024-08-05 20:23:58,15.08834873,0.0001467,53.2153,66.6012,88.536,271.5801,0.00014491,2.019e-05,0.0,0 STARLINK-3617,1 51780U 22017N   24218.84997979  .00002019  00000-0  14491-3 0  9996,2 51780  53.2153  66.6012 0001467  88.5360 271.5801 15.08834873136428,6917.896,95.438,540.776,538.746,0.0
51780.0,STARLINK-3617,PAYLOAD,2024-08-06 13:53:13,15.08840215,0.0001795,53.2183,63.3309,93.0224,267.0973,0.00059202,9.147e-05,0.0,0 STARLINK-3617,1 51780U 22017N   24219.57862405  .00009147  00000-0  59202-3 0  9990,2 51780  53.2183  63.3309 0001795  93.0224 267.0973 15.08840215134849,6917.88,95.438,540.986,538.503,0.0
51780.0,STARLINK-3617,PAYLOAD,2024-08-06 20:14:45,15.08838611,0.0001653,53.2179,62.1416,90.0654,270.0528,0.00028587,4.264e-05,0.0,0 STARLINK-3617,1 51780U 22017N   24219.84358450  .00004264  00000-0  28587-3 0  9997,2 51780  53.2179  62.1416 0001653  90.0654 270.0528 15.08838611134888,6917.885,95.438,540.893,538.606,0.0
51780.0,STARLINK-3617,PAYLOAD,2024-08-07 20:05:32,15.08850833,0.0001444,53.2175,57.6818,86.0935,274.0223,0.00010332,1.357e-05,0.0,0 STARLINK-3617,1 51780U 22017N   24220.83717901  .00001357  00000-0  10332-3 0  9997,2 51780  53.2175  57.6818 0001444  86.0935 274.0223 15.08850833136725,6917.847,95.437,540.711,538.713,0.0
51780.0,STARLINK-3617,PAYLOAD,2024-08-08 18:20:56,15.0884674,0.0001443,53.2172,53.5172,101.839,258.2764,0.00017217,2.454e-05,0.0,0 STARLINK-3617,1 51780U 22017N   24221.76453859  .00002454  00000-0  17217-3 0  9997,2 51780  53.2172  53.5172 0001443 101.8390 258.2764 15.08846740136861,6917.86,95.437,540.723,538.727,0.0
51780.0,STARLINK-3617,PAYLOAD,2024-08-09 05:28:37,15.08855989,0.0001562,53.2177,51.4394,115.2077,244.9078,0.0003008,4.505e-05,0.0,0 STARLINK-3617,1 51780U 22017N   24222.22821222  .00004505  00000-0  30080-3 0  9994,2 51780  53.2177  51.4394 0001562 115.2077 244.9078 15.08855989136935,6917.832,95.437,540.777,538.616,0.0
51780.0,STARLINK-3617,PAYLOAD,2024-08-09 19:47:06,15.08828043,0.0001581,53.2171,48.7653,125.4915,234.6225,-0.00025744,-4.381e-05,0.0,0 STARLINK-3617,1 51780U 22017N   24222.82438170 -.00004381  00000-0 -25744-3 0  9991,2 51780  53.2171  48.7653 0001581 125.4915 234.6225 15.08828043137023,6917.917,95.438,540.876,538.688,0.0
51780.0,STARLINK-3617,PAYLOAD,2024-08-10 11:40:57,15.08838593,0.0001169,53.2164,45.7855,111.5758,248.5359,3.6083e-05,2.86e-06,0.0,0 STARLINK-3617,1 51780U 22017N   24223.48678220  .00000286  00000-0  36083-4 0  9993,2 51780  53.2164  45.7855 0001169 111.5758 248.5359 15.08838593137123,6917.885,95.438,540.558,538.941,0.0
51780.0,STARLINK-3617,PAYLOAD,2024-08-10 19:37:53,15.08841191,0.0001055,53.2164,44.2976,101.1603,258.9508,0.00020012,2.899e-05,0.0,0 STARLINK-3617,1 51780U 22017N   24223.81798390  .00002899  00000-0  20012-3 0  9997,2 51780  53.2164  44.2976 0001055 101.1603 258.9508 15.08841191135485,6917.877,95.437,540.472,539.012,0.0
51780.0,STARLINK-3617,PAYLOAD,2024-08-11 11:31:45,15.08838741,0.0002041,53.2166,41.3293,87.7864,272.3362,0.00028663,4.276e-05,0.0,0 STARLINK-3617,1 51780U 22017N   24224.48039171  .00004276  00000-0  28663-3 0  9997,2 51780  53.2166  41.3293 0002041  87.7864 272.3362 15.08838741137275,6917.884,95.438,541.161,538.337,0.0
51780.0,STARLINK-3617,PAYLOAD,2024-08-11 21:04:04,15.08839164,0.0001722,53.2164,39.5413,85.1686,274.9503,0.00023917,3.52e-05,0.0,0 STARLINK-3617,1 51780U 22017N   24224.87782893  .00003520  00000-0  23917-3 0  9994,2 51780  53.2164  39.5413 0001722  85.1686 274.9503 15.08839164135649,6917.883,95.438,540.939,538.557,0.0
51780.0,STARLINK-3617,PAYLOAD,2024-08-12 05:00:59,15.08861658,0.0001653,53.2171,38.057,85.6318,274.4863,0.00088465,0.00013828,0.0,0 STARLINK-3617,1 51780U 22017N   24225.20902258  .00013828  00000-0  88465-3 0  9992,2 51780  53.2171  38.0570 0001653  85.6318 274.4863 15.08861658137385,6917.814,95.436,540.823,538.536,0.0
51780.0,STARLINK-3617,PAYLOAD,2024-08-12 11:22:32,15.08821453,8.26e-05,53.2167,36.862,118.1914,241.9162,-0.0005307,-8.719e-05,0.0,0 STARLINK-3617,1 51780U 22017N   24225.47398796 -.00008719  00000-0 -53070-3 0  9996,2 51780  53.2167  36.8620 0000826 118.1914 241.9162 15.08821453137422,6917.937,95.439,540.374,539.231,0.0
51780.0,STARLINK-3617,PAYLOAD,2024-08-12 20:54:50,15.08869303,0.0001609,53.2167,35.0791,99.2412,260.8762,0.0027165,0.00043246,0.0,0 STARLINK-3617,1 51780U 22017N   24225.87142260  .00043246  00000-0  27165-2 0  9990,2 51780  53.2167  35.0791 0001609  99.2412 260.8762 15.08869303137482,6917.791,95.436,540.769,538.543,0.0
51780.0,STARLINK-3617,PAYLOAD,2024-08-13 04:51:46,15.08879874,0.0002434,53.2173,33.5962,64.2294,295.8949,0.0019328,0.00030641,0.0,0 STARLINK-3617,1 51780U 22017N   24226.20261788  .00030641  00000-0  19328-2 0  9992,2 51780  53.2173  33.5962 0002434  64.2294 295.8949 15.08879874137534,6917.759,95.435,541.307,537.94,0.0
51780.0,STARLINK-3617,PAYLOAD,2024-08-13 11:13:18,15.08819508,0.0001519,53.2156,32.4057,74.3977,285.7183,-0.0020161,-0.00032213,0.0,0 STARLINK-3617,1 51780U 22017N   24226.46758041 -.00032213  00000-0 -20161-2 0  9999,2 51780  53.2156  32.4057 0001519  74.3977 285.7183 15.08819508137571,6917.943,95.439,540.859,538.757,0.0
51780.0,STARLINK-3617,PAYLOAD,2024-08-13 20:45:38,15.08804101,0.0001116,53.216,30.6199,70.9315,289.1798,0.00090083,0.00014064,0.0,0 STARLINK-3617,1 51780U 22017N   24226.86503274  .00014064  00000-0  90083-3 0  9992,2 51780  53.2160  30.6199 0001116  70.9315 289.1798 15.08804101135946,6917.99,95.44,540.627,539.083,0.0
51780.0,STARLINK-3617,PAYLOAD,2024-08-13 22:21:02,15.08803021,0.0001156,53.2169,30.3224,75.8112,284.3009,0.0012433,0.00019534,0.0,0 STARLINK-3617,1 51780U 22017N   24226.93127528  .00019534  00000-0  12433-2 0  9993,2 51780  53.2169  30.3224 0001156  75.8112 284.3009 15.08803021137645,6917.993,95.44,540.658,539.059,0.0
51780.0,STARLINK-3617,PAYLOAD,2024-08-14 14:14:53,15.08855931,0.0001119,53.2149,27.35,54.2252,305.8844,0.0020691,0.0003281,0.0,0 STARLINK-3617,1 51780U 22017N   24227.59367696  .00032810  00000-0  20691-2 0  9995,2 51780  53.2149  27.3500 0001119  54.2252 305.8844 15.08855931136058,6917.832,95.437,540.471,538.923,0.0
51780.0,STARLINK-3617,PAYLOAD,2024-08-14 17:25:39,15.08860397,0.0001108,53.2171,26.7529,78.7465,281.3652,0.0016709,0.00026419,0.0,0 STARLINK-3617,1 51780U 22017N   24227.72615450  .00026419  00000-0  16709-2 0  9997,2 51780  53.2171  26.7529 0001108  78.7465 281.3652 15.08860397137768,6917.818,95.436,540.45,538.917,0.0
